CCSDS_OMM_VERS = 2.0
CREATION_DATE  = 
ORIGINATOR     = 

OBJECT_NAME    = ATLAS CENTAUR R/B
OBJECT_ID      = 1972-065B
CENTER_NAME    = EARTH
REF_FRAME      = TEME
TIME_SYSTEM    = UTC
MEAN_ELEMENT_THEORY = SGP/SGP4

EPOCH          = 2025-12-28T01:37:22.140768
MEAN_MOTION    = 14.77450221
ECCENTRICITY   = .00333515
INCLINATION    = 35.0025
RA_OF_ASC_NODE = 5.4088
ARG_OF_PERICENTER = 128.4998
MEAN_ANOMALY   = 231.8700

EPHEMERIS_TYPE = 0
CLASSIFICATION_TYPE = U
NORAD_CAT_ID   = 6155
ELEMENT_SET_NO = 999
REV_AT_EPOCH   = 83066
BSTAR          = .2178713E-3
MEAN_MOTION_DOT = .1568E-4
MEAN_MOTION_DDOT = 0

CCSDS_OMM_VERS = 2.0
CREATION_DATE  = 
ORIGINATOR     = 

OBJECT_NAME    = SL-8 R/B
OBJECT_ID      = 1975-112B
CENTER_NAME    = EARTH
REF_FRAME      = TEME
TIME_SYSTEM    = UTC
MEAN_ELEMENT_THEORY = SGP/SGP4

EPOCH          = 2025-12-28T14:54:22.922496
MEAN_MOTION    = 14.38156190
ECCENTRICITY   = .00166838
INCLINATION    = 74.0600
RA_OF_ASC_NODE = 149.6461
ARG_OF_PERICENTER = 259.4155
MEAN_ANOMALY   = 100.5120

EPHEMERIS_TYPE = 0
CLASSIFICATION_TYPE = U
NORAD_CAT_ID   = 8459
ELEMENT_SET_NO = 999
REV_AT_EPOCH   = 62165
BSTAR          = .12784188E-3
MEAN_MOTION_DOT = .362E-5
MEAN_MOTION_DDOT = 0

CCSDS_OMM_VERS = 2.0
CREATION_DATE  = 
ORIGINATOR     = 

OBJECT_NAME    = SL-3 R/B
OBJECT_ID      = 1977-057B
CENTER_NAME    = EARTH
REF_FRAME      = TEME
TIME_SYSTEM    = UTC
MEAN_ELEMENT_THEORY = SGP/SGP4

EPOCH          = 2025-12-28T15:26:08.225664
MEAN_MOTION    = 15.43343501
ECCENTRICITY   = .00075378
INCLINATION    = 97.5690
RA_OF_ASC_NODE = 166.5952
ARG_OF_PERICENTER = 170.8110
MEAN_ANOMALY   = 189.3276

EPHEMERIS_TYPE = 0
CLASSIFICATION_TYPE = U
NORAD_CAT_ID   = 10114
ELEMENT_SET_NO = 999
REV_AT_EPOCH   = 65736
BSTAR          = .33926701E-3
MEAN_MOTION_DOT = .15058E-3
MEAN_MOTION_DDOT = 0

CCSDS_OMM_VERS = 2.0
CREATION_DATE  = 
ORIGINATOR     = 

OBJECT_NAME    = SEASAT 1
OBJECT_ID      = 1978-064A
CENTER_NAME    = EARTH
REF_FRAME      = TEME
TIME_SYSTEM    = UTC
MEAN_ELEMENT_THEORY = SGP/SGP4

EPOCH          = 2025-12-28T14:13:45.626880
MEAN_MOTION    = 14.46079308
ECCENTRICITY   = .00012583
INCLINATION    = 108.0142
RA_OF_ASC_NODE = 336.2956
ARG_OF_PERICENTER = 257.5497
MEAN_ANOMALY   = 102.5508

EPHEMERIS_TYPE = 0
CLASSIFICATION_TYPE = U
NORAD_CAT_ID   = 10967
ELEMENT_SET_NO = 999
REV_AT_EPOCH   = 49623
BSTAR          = .19046715E-3
MEAN_MOTION_DOT = .543E-5
MEAN_MOTION_DDOT = 0

CCSDS_OMM_VERS = 2.0
CREATION_DATE  = 
ORIGINATOR     = 

OBJECT_NAME    = SL-14 R/B
OBJECT_ID      = 1979-011B
CENTER_NAME    = EARTH
REF_FRAME      = TEME
TIME_SYSTEM    = UTC
MEAN_ELEMENT_THEORY = SGP/SGP4

EPOCH          = 2025-12-28T11:36:35.560224
MEAN_MOTION    = 14.91790854
ECCENTRICITY   = .00147706
INCLINATION    = 82.5238
RA_OF_ASC_NODE = 164.1120
ARG_OF_PERICENTER = 298.1040
MEAN_ANOMALY   = 61.8686

EPHEMERIS_TYPE = 0
CLASSIFICATION_TYPE = U
NORAD_CAT_ID   = 11267
ELEMENT_SET_NO = 999
REV_AT_EPOCH   = 51816
BSTAR          = .89552135E-4
MEAN_MOTION_DOT = .929E-5
MEAN_MOTION_DDOT = 0

CCSDS_OMM_VERS = 2.0
CREATION_DATE  = 
ORIGINATOR     = 

OBJECT_NAME    = SL-8 R/B
OBJECT_ID      = 1979-089B
CENTER_NAME    = EARTH
REF_FRAME      = TEME
TIME_SYSTEM    = UTC
MEAN_ELEMENT_THEORY = SGP/SGP4

EPOCH          = 2025-12-28T13:57:24.634368
MEAN_MOTION    = 14.42293704
ECCENTRICITY   = .00148207
INCLINATION    = 74.0671
RA_OF_ASC_NODE = 222.6594
ARG_OF_PERICENTER = 50.6009
MEAN_ANOMALY   = 309.6457

EPHEMERIS_TYPE = 0
CLASSIFICATION_TYPE = U
NORAD_CAT_ID   = 11574
ELEMENT_SET_NO = 999
REV_AT_EPOCH   = 42585
BSTAR          = .10015218E-3
MEAN_MOTION_DOT = .305E-5
MEAN_MOTION_DDOT = 0

CCSDS_OMM_VERS = 2.0
CREATION_DATE  = 
ORIGINATOR     = 

OBJECT_NAME    = SL-14 R/B
OBJECT_ID      = 1980-005B
CENTER_NAME    = EARTH
REF_FRAME      = TEME
TIME_SYSTEM    = UTC
MEAN_ELEMENT_THEORY = SGP/SGP4

EPOCH          = 2025-12-28T10:48:05.327424
MEAN_MOTION    = 14.90811082
ECCENTRICITY   = .00169043
INCLINATION    = 82.5138
RA_OF_ASC_NODE = 14.7979
ARG_OF_PERICENTER = 45.3636
MEAN_ANOMALY   = 314.8958

EPHEMERIS_TYPE = 0
CLASSIFICATION_TYPE = U
NORAD_CAT_ID   = 11672
ELEMENT_SET_NO = 999
REV_AT_EPOCH   = 46587
BSTAR          = .77536873E-4
MEAN_MOTION_DOT = .79E-5
MEAN_MOTION_DDOT = 0

CCSDS_OMM_VERS = 2.0
CREATION_DATE  = 
ORIGINATOR     = 

OBJECT_NAME    = SL-8 R/B
OBJECT_ID      = 1981-003B
CENTER_NAME    = EARTH
REF_FRAME      = TEME
TIME_SYSTEM    = UTC
MEAN_ELEMENT_THEORY = SGP/SGP4

EPOCH          = 2025-12-28T11:18:59.887008
MEAN_MOTION    = 15.07552199
ECCENTRICITY   = .02770221
INCLINATION    = 82.9357
RA_OF_ASC_NODE = 355.7276
ARG_OF_PERICENTER = 66.2681
MEAN_ANOMALY   = 296.7343

EPHEMERIS_TYPE = 0
CLASSIFICATION_TYPE = U
NORAD_CAT_ID   = 12139
ELEMENT_SET_NO = 999
REV_AT_EPOCH   = 30393
BSTAR          = .67823452E-3
MEAN_MOTION_DOT = .25644E-3
MEAN_MOTION_DDOT = 0

CCSDS_OMM_VERS = 2.0
CREATION_DATE  = 
ORIGINATOR     = 

OBJECT_NAME    = SL-3 R/B
OBJECT_ID      = 1981-046B
CENTER_NAME    = EARTH
REF_FRAME      = TEME
TIME_SYSTEM    = UTC
MEAN_ELEMENT_THEORY = SGP/SGP4

EPOCH          = 2025-12-28T13:13:15.177504
MEAN_MOTION    = 15.39948882
ECCENTRICITY   = .00180157
INCLINATION    = 81.2325
RA_OF_ASC_NODE = 15.0177
ARG_OF_PERICENTER = 266.1917
MEAN_ANOMALY   = 93.7264

EPHEMERIS_TYPE = 0
CLASSIFICATION_TYPE = U
NORAD_CAT_ID   = 12465
ELEMENT_SET_NO = 999
REV_AT_EPOCH   = 42747
BSTAR          = .33517891E-3
MEAN_MOTION_DOT = .13459E-3
MEAN_MOTION_DDOT = 0

CCSDS_OMM_VERS = 2.0
CREATION_DATE  = 
ORIGINATOR     = 

OBJECT_NAME    = SL-3 R/B
OBJECT_ID      = 1981-103B
CENTER_NAME    = EARTH
REF_FRAME      = TEME
TIME_SYSTEM    = UTC
MEAN_ELEMENT_THEORY = SGP/SGP4

EPOCH          = 2025-12-28T12:31:14.749536
MEAN_MOTION    = 15.20424646
ECCENTRICITY   = .00131082
INCLINATION    = 81.1593
RA_OF_ASC_NODE = 296.8691
ARG_OF_PERICENTER = 157.5695
MEAN_ANOMALY   = 202.6112

EPHEMERIS_TYPE = 0
CLASSIFICATION_TYPE = U
NORAD_CAT_ID   = 12904
ELEMENT_SET_NO = 999
REV_AT_EPOCH   = 96241
BSTAR          = .34943721E-3
MEAN_MOTION_DOT = .7661E-4
MEAN_MOTION_DDOT = 0

CCSDS_OMM_VERS = 2.0
CREATION_DATE  = 
ORIGINATOR     = 

OBJECT_NAME    = SL-3 R/B
OBJECT_ID      = 1982-013B
CENTER_NAME    = EARTH
REF_FRAME      = TEME
TIME_SYSTEM    = UTC
MEAN_ELEMENT_THEORY = SGP/SGP4

EPOCH          = 2025-12-28T13:29:33.661824
MEAN_MOTION    = 15.21227307
ECCENTRICITY   = .00240207
INCLINATION    = 81.1740
RA_OF_ASC_NODE = 244.0883
ARG_OF_PERICENTER = 60.4391
MEAN_ANOMALY   = 299.9230

EPHEMERIS_TYPE = 0
CLASSIFICATION_TYPE = U
NORAD_CAT_ID   = 13068
ELEMENT_SET_NO = 999
REV_AT_EPOCH   = 39353
BSTAR          = .26157511E-3
MEAN_MOTION_DOT = .5909E-4
MEAN_MOTION_DDOT = 0

CCSDS_OMM_VERS = 2.0
CREATION_DATE  = 
ORIGINATOR     = 

OBJECT_NAME    = SL-3 R/B
OBJECT_ID      = 1982-039B
CENTER_NAME    = EARTH
REF_FRAME      = TEME
TIME_SYSTEM    = UTC
MEAN_ELEMENT_THEORY = SGP/SGP4

EPOCH          = 2025-12-28T14:43:59.194848
MEAN_MOTION    = 15.09620685
ECCENTRICITY   = .00294531
INCLINATION    = 81.1702
RA_OF_ASC_NODE = 297.8335
ARG_OF_PERICENTER = 198.2952
MEAN_ANOMALY   = 161.7217

EPHEMERIS_TYPE = 0
CLASSIFICATION_TYPE = U
NORAD_CAT_ID   = 13154
ELEMENT_SET_NO = 999
REV_AT_EPOCH   = 37091
BSTAR          = .23862315E-3
MEAN_MOTION_DOT = .3898E-4
MEAN_MOTION_DDOT = 0

