ATLAS CENTAUR R/B       
1 06155U 72065B   25362.06761737  .00001568  00000+0  21787-3 0  9999
2 06155  35.0025   5.4088 0033351 128.4998 231.8700 14.77450221830662
SL-8 R/B                
1 08459U 75112B   25362.62109864  .00000362  00000+0  12784-3 0  9991
2 08459  74.0600 149.6461 0016683 259.4155 100.5120 14.38156190621658
SL-3 R/B                
1 10114U 77057B   25362.64315076  .00015058  00000+0  33927-3 0  9998
2 10114  97.5690 166.5952 0007537 170.8110 189.3276 15.43343501657361
SEASAT 1                
1 10967U 78064A   25362.59288920  .00000543  00000+0  19047-3 0  9994
2 10967 108.0142 336.2956 0001258 257.5497 102.5508 14.46079308496237
SL-14 R/B               
1 11267U 79011B   25362.48374491  .00000929  00000+0  89552-4 0  9995
2 11267  82.5238 164.1120 0014770 298.1040  61.8686 14.91790854518169
SL-8 R/B                
1 11574U 79089B   25362.58153512  .00000305  00000+0  10015-3 0  9996
2 11574  74.0671 222.6594 0014820  50.6009 309.6457 14.42293704425854
SL-14 R/B               
1 11672U 80005B   25362.45006166  .00000790  00000+0  77537-4 0  9994
2 11672  82.5138  14.7979 0016904  45.3636 314.8958 14.90811082465872
SL-8 R/B                
1 12139U 81003B   25362.47152647  .00025644  00000+0  67823-3 0  9991
2 12139  82.9357 355.7276 0277022  66.2681 296.7343 15.07552199303932
SL-3 R/B                
1 12465U 81046B   25362.55087011  .00013459  00000+0  33518-3 0  9996
2 12465  81.2325  15.0177 0018015 266.1917  93.7264 15.39948882427471
SL-3 R/B                
1 12904U 81103B   25362.52169849  .00007661  00000+0  34944-3 0  9997
2 12904  81.1593 296.8691 0013108 157.5695 202.6112 15.20424646962417
SL-3 R/B                
1 13068U 82013B   25362.56219516  .00005909  00000+0  26158-3 0  9992
2 13068  81.1740 244.0883 0024020  60.4391 299.9230 15.21227307393538
SL-3 R/B                
1 13154U 82039B   25362.61387957  .00003898  00000+0  23862-3 0  9991
2 13154  81.1702 297.8335 0029453 198.2952 161.7217 15.09620685370918
